[
    {
        "CCSDS_OMM_VERS": "3.0",
        "COMMENT": "GENERATED VIA SPACE-TRACK.ORG API",
        "CREATION_DATE": "2025-05-04T02:26:54",
        "ORIGINATOR": "18 SPCS",
        "OBJECT_NAME": "GALILEO 14 (26B)",
        "OBJECT_ID": "2016-030A",
        "CENTER_NAME": "EARTH",
        "REF_FRAME": "TEME",
        "TIME_SYSTEM": "UTC",
        "MEAN_ELEMENT_THEORY": "SGP4",
        "EPOCH": "2025-05-03T08:38:46.108032",
        "MEAN_MOTION": "1.70473982",
        "ECCENTRICITY": "0.00020510",
        "INCLINATION": "55.2314",
        "RA_OF_ASC_NODE": "232.9657",
        "ARG_OF_PERICENTER": "349.1836",
        "MEAN_ANOMALY": "10.8157",
        "EPHEMERIS_TYPE": "0",
        "CLASSIFICATION_TYPE": "U",
        "NORAD_CAT_ID": "41549",
        "ELEMENT_SET_NO": "999",
        "REV_AT_EPOCH": "5568",
        "BSTAR": "0.00000000000000",
        "MEAN_MOTION_DOT": "-0.00000029",
        "MEAN_MOTION_DDOT": "0.0000000000000",
        "SEMIMAJOR_AXIS": "29600.322",
        "PERIOD": "844.704",
        "APOAPSIS": "23228.258",
        "PERIAPSIS": "23216.116",
        "OBJECT_TYPE": "PAYLOAD",
        "RCS_SIZE": "LARGE",
        "COUNTRY_CODE": "ESA",
        "LAUNCH_DATE": "2016-05-24",
        "SITE": "FRGUI",
        "DECAY_DATE": null,
        "FILE": "4718307",
        "GP_ID": "286798108",
        "TLE_LINE0": "0 GALILEO 14 (26B)",
        "TLE_LINE1": "1 41549U 16030A   25123.36025588 -.00000029  00000-0  00000-0 0  9995",
        "TLE_LINE2": "2 41549  55.2314 232.9657 0002051 349.1836  10.8157  1.70473982 55688"
    }
]